satname,norad_id,inclination_deg,eccentricity,mean_motion_rev_per_day,perigee_km,apogee_km,l1,l2
STARLINK-1540,46051,53.1591,0.0001182,15.30205493,474.38860408450637,476.00873263650647,1 46051U 20055AA  26105.91336297  .00003676  00000+0  13616-3 0  9993,2 46051  53.1591 300.9434 0001182  95.6160 264.4975 15.30205493314786
STARLINK-1541,46052,53.1586,0.000104,15.46740231,425.56188424346055,426.97720080430554,1 46052U 20055AB  26106.00002315  .01818702  00000+0  32204-1 0  9993,2 46052  53.1586 299.9631 0001040 102.3029  28.7077 15.46740231  5827
STARLINK-1543,46053,53.1604,0.0001299,15.30194098,474.3424390611599,476.12294450708487,1 46053U 20055AC  26105.90915689  .00000826  00000+0  40025-4 0  9991,2 46053  53.1604 301.0303 0001299  92.1755 267.9394 15.30194098314771
STARLINK-1548,46054,53.1603,0.0001134,15.30210503,474.4065429654138,475.96087610233644,1 46054U 20055AD  26105.91650790  .00003226  00000+0  12095-3 0  9994,2 46054  53.1603 300.9985 0001134  92.3448 267.7683 15.30210503314773
STARLINK-1554,46055,53.1603,0.00013,15.31699125,469.8522492078964,471.6329579048206,1 46055U 20055AE  26105.90979576  .00000475  00000+0  27067-4 0  9999,2 46055  53.1603 301.1029 0001300  80.5532 279.5617 15.31699125314774
STARLINK-1564,46058,53.1585,0.0001633,15.30193675,474.11479931736903,476.35311027120497,1 46058U 20055AH  26105.78176624  .00002664  00000+0  10208-3 0  9991,2 46058  53.1585 302.0807 0001633  91.3214 268.7974 15.30193675314747
STARLINK-1570,46059,53.1599,0.0001347,15.3168309,469.8678529982262,471.712954040735,1 46059U 20055AJ  26106.00002315  .00054676  00000+0  17617-2 0  9993,2 46059  53.1599 300.5675 0001347  73.8654 269.8718 15.31683090  5824
STARLINK-1572,46060,53.1587,0.0001077,15.30205512,474.46050738489885,475.93671587564404,1 46060U 20055AK  26105.95869465  .00000961  00000+0  44570-4 0  9993,2 46060  53.1587 301.0070 0001077 105.5645 254.5475 15.30205512314744
STARLINK-1573,46061,53.1584,0.0001516,15.31682266,469.75456210014454,471.8311576336555,1 46061U 20055AL  26106.00002315  .00051749  00000+0  16687-2 0  9990,2 46061  53.1584 300.5373 0001516  77.0066 343.9063 15.31682266  5884
STARLINK-1577,46063,53.1608,8.96e-05,15.30899858,472.5123425155143,473.7400888837674,1 46063U 20055AN  26105.82091632  .00086339  00000+0  28316-2 0  9996,2 46063  53.1608 301.3568 0000896  89.8495 270.2609 15.30899858314758
STARLINK-1583,46064,53.1593,0.0001394,15.30193284,474.2797621842574,476.1904823319419,1 46064U 20055AP  26105.92284059 -.00001727  00000+0 -46216-4 0  9996,2 46064  53.1593 300.9222 0001394 101.5723 258.5435 15.30193284314761
STARLINK-1536,46070,53.1207,4.74e-05,15.24270367,492.65156439326984,493.30294602466347,1 46070U 20055AV  26106.00002315  .00067355  00000+0  27119-2 0  9992,2 46070  53.1207 288.1105 0000474 146.7741 201.2768 15.24270367  5757
STARLINK-1542,46073,53.0544,0.0001892,15.06397888,545.9077537498051,548.5283080935051,1 46073U 20055AY  26105.89700141  .00001483  00000+0  11844-3 0  9992,2 46073  53.0544 289.5861 0001892  79.9539 280.1663 15.06397888314913
STARLINK-1549,46074,53.0504,0.0001155,15.25548675,488.3451918021501,489.93153241079654,1 46074U 20055AZ  26105.80273097  .00018647  00000+0  73696-3 0  9992,2 46074  53.0504 288.4701 0001155  71.3174 288.7949 15.25548675314918
STARLINK-1551,46075,53.1561,0.0001242,15.29336382,476.94338373447226,478.64639721606545,1 46075U 20055BA  26106.00002315  .00040360  00000+0  14042-2 0  9995,2 46075  53.1561 287.6888 0001242  78.4163 133.0758 15.29336382  5802
STARLINK-1552,46076,53.1549,7.08e-05,15.29341112,477.29535531272995,478.2661532667371,1 46076U 20055BB  26106.00002315  .00043106  00000+0  14982-2 0  9990,2 46076  53.1549 287.6674 0000708  96.2235 347.4731 15.29341112  5647
STARLINK-1559,46077,53.0257,0.0001489,15.33515591,464.31416067806913,466.3521460897464,1 46077U 20055BC  26105.75737611  .00054769  00000+0  16661-2 0  9999,2 46077  53.0257 260.8844 0001489 201.2977 158.7962 15.33515591315263
STARLINK-1566,46079,53.1536,6.48e-05,15.29356406,477.2907862837146,478.1793073009794,1 46079U 20055BE  26105.80441260  .00006359  00000+0  23248-3 0  9991,2 46079  53.1536 288.5452 0000648  95.7451 264.3623 15.29356406314920
STARLINK-1568,46080,53.0607,0.0004285,15.49471834,415.3578238512282,421.1823447224615,1 46080U 20055BF  26105.48792419  .00023440  00000+0  42568-3 0  9998,2 46080  53.0607 216.9705 0004285 269.6289  90.4228 15.49471834315899
STARLINK-1578,46082,53.1295,7.69e-05,15.26287098,486.3953192189874,487.45116548426086,1 46082U 20055BH  26106.00002315  .00074807  00000+0  28310-2 0  9999,2 46082  53.1295 288.0137 0000769  85.4675 334.0103 15.26287098  5808
STARLINK-1579,46083,53.1537,0.0001123,15.2935607,476.96613640682244,478.505965494066,1 46083U 20055BJ  26106.00002315  .00043998  00000+0  15280-2 0  9999,2 46083  53.1537 287.7278 0001123 111.2087 279.2408 15.29356070  5640
STARLINK-1593,46119,53.0357,0.0004945,15.92348689,292.4120166983721,299.01245359193035,1 46119U 20057C   26106.00002315  .00266686  37922-4  77930-3 0  9991,2 46119  53.0357  82.4384 0004945  79.5081 299.2280 15.92348689  5931
STARLINK-1621,46127,53.0364,0.0004009,15.99205457,273.95411256717034,279.28989833774267,1 46127U 20057L   26106.00002315  .00388687  74685-4  77975-3 0  9992,2 46127  53.0364  54.5998 0004009  98.6708  71.8294 15.99205457  5973
STARLINK-1622,46128,53.0213,0.0001497,15.71207579,354.43663964657844,356.45267399463046,1 46128U 20057M   26105.54541677  .00066187  00000+0  51369-3 0  9992,2 46128  53.0213  42.4770 0001497  36.6296 323.4823 15.71207579313145
STARLINK-1623,46129,53.0452,0.0002782,15.60893787,383.1925242369625,386.9555748649327,1 46129U 20057N   26105.93860965  .00083040  00000+0  97077-3 0  9993,2 46129  53.0452  75.4289 0002782  16.7120 343.3983 15.60893787312726
STARLINK-1624,46130,53.0381,0.0007796,15.80967113,322.4766239303917,332.93237199401483,1 46130U 20057P   26106.00002315  .00081456  00000+0  40976-3 0  9996,2 46130  53.0381  46.7271 0007796 103.0899 306.5962 15.80967113  5997
STARLINK-1596,46141,53.0392,0.0002063,15.509607,412.5186506194141,415.3210532765279,1 46141U 20057AA  26105.29510110  .00045777  00000+0  77942-3 0  9994,2 46141  53.0392  55.6886 0002063  95.7046 264.4198 15.50960700312946
STARLINK-1597,46142,53.0444,0.0004935,15.64785372,370.52398838874797,377.1882055754695,1 46142U 20057AB  26105.28662652  .00051760  00000+0  52376-3 0  9996,2 46142  53.0444 118.4917 0004935 350.8268   9.2656 15.64785372312050
